ONEWEB-0338             
1 49204U 21083U   24088.97415536 -.00000316  00000+0 -80911-3 0  9998
2 49204  87.9141  75.6890 0001480  84.4387 275.6915 13.20770410129869
ONEWEB-0339             
1 49205U 21083V   24088.82514180 -.00000040  00000+0 -14560-3 0  9999
2 49205  87.8911 121.5555 0001969 100.7522 259.3829 13.13470329124516
ONEWEB-0340             
1 49206U 21083W   24088.84906160  .00000022  00000+0  22100-4 0  9993
2 49206  87.9171 136.7531 0002245  98.6303 261.5083 13.18685409123178
ONEWEB-0341             
1 49207U 21083X   24089.16047398  .00000101  00000+0  22238-3 0  9998
2 49207  87.9168 136.7062 0002157 119.5279 240.6068 13.18687776124521
ONEWEB-0342             
1 49208U 21083Y   24088.98049270  .00000103  00000+0  22033-3 0  9994
2 49208  87.9135  75.7045 0001733  83.7023 276.4308 13.20771991131132
ONEWEB-0343             
1 49209U 21083Z   24088.85222264 -.00000079  00000+0 -23195-3 0  9991
2 49209  87.9163 136.7793 0001975 116.6675 243.4659 13.18686062123246
ONEWEB-0344             
1 49210U 21083AA  24088.79181062 -.00000037  00000+0 -13498-3 0  9995
2 49210  87.8915 121.5773 0002235  95.7600 264.3784 13.13469711124514
ONEWEB-0345             
1 49211U 21083AB  24089.11397700 -.00000241  00000+0 -69501-3 0  9994
2 49211  87.8914 121.4904 0002397 106.1473 253.9920 13.13470373125864
